ONEWEB-0275             
1 48993U 21060AC  26201.82004806  .00000037  00000+0  63858-4 0  9994
2 48993  87.9079 222.0949 0001190  98.1959 261.9307 13.16588434243982
ONEWEB-0276             
1 48994U 21060AD  26201.77734243 -.00000050  00000+0 -16561-3 0  9999
2 48994  87.9077 222.1025 0001917  94.5834 265.5516 13.16593884243994
ONEWEB-0277             
1 48995U 21060AE  26201.79000640  .00000010  00000+0 -74660-5 0  9990
2 48995  87.9071 222.1069 0002186  96.6443 263.4937 13.16595261243989
ONEWEB-0278             
1 48996U 21060AF  26201.78050908 -.00000003  00000+0 -41054-4 0  9995
2 48996  87.9077 222.1013 0002163  87.6360 272.5019 13.16594387244114
ONEWEB-0279             
1 48997U 21060AG  26201.78842584 -.00000015  00000+0 -73631-4 0  9994
2 48997  87.9077 222.0979 0002046 100.0334 260.1028 13.16593777244043
ONEWEB-0280             
1 48998U 21060AH  26201.42347044  .00000100  00000+0  22879-3 0  9997
2 48998  87.9076 222.1744 0002411  92.4625 267.6782 13.16594816243938
ONEWEB-0281             
1 48999U 21060AJ  26201.80898875  .00000066  00000+0  13944-3 0  9997
2 48999  87.9080 222.0935 0001924  92.7910 267.3441 13.16592504244058
ONEWEB-0282             
1 49000U 21060AK  26201.30710284 -.00000010  00000+0 -60782-4 0  9997
2 49000  87.9078 222.2005 0002207  94.6457 265.4926 13.16595229243964
ONEWEB-0283             
1 49001U 21060AL  26201.44801735  .00000010  00000+0 -61675-5 0  9997
2 49001  87.9077 222.1717 0002062  98.4019 261.7346 13.16593651243993
ONEWEB-0284             
1 49002U 21060AM  26201.82167536  .00000111  00000+0  25630-3 0  9994
2 49002  87.9082 222.0917 0002371  89.2463 270.8940 13.16594468244028
ONEWEB-0285             
1 49075U 21075A   26201.90957926  .00000230  00000+0  60519-3 0  9996
2 49075  87.8977 343.9589 0001701  90.9769 269.1554 13.12446914239633
ONEWEB-0286             
1 49076U 21075B   26201.89164661 -.00000371  00000+0 -10660-2 0  9990
2 49076  87.8968 343.9759 0001712  92.0722 268.0602 13.12443100238980
ONEWEB-0287             
1 49077U 21075C   26201.88231313  .00000036  00000+0  60212-4 0  9995
2 49077  87.9153 359.1629 0001724  80.5560 279.5767 13.17648365238061
ONEWEB-0288             
1 49078U 21075D   26201.86806598  .00000018  00000+0  14672-4 0  9996
2 49078  87.8977 343.9598 0001871  89.0933 271.0410 13.12440927239604
ONEWEB-0289             
1 49079U 21075E   26201.92111973 -.00000001  00000+0 -35629-4 0  9999
2 49079  87.9156 359.1738 0002288  94.5461 265.5932 13.17649856238647
ONEWEB-0290             
1 49080U 21075F   26201.89412115 -.00000032  00000+0 -11549-3 0  9997
2 49080  87.9162 359.1521 0002363  95.3489 264.7912 13.17647860238056
