{"fetched_at":"2026-07-21T07:06:28.574Z","source":"https://celestrak.org/NORAD/elements/gp.php?GROUP=oneweb&FORMAT=JSON","constellation":"oneweb","records":[{"OBJECT_NAME":"ONEWEB-0275","OBJECT_ID":"2021-060AC","EPOCH":"2026-07-20T19:40:52.152384","CLASSIFICATION_TYPE":"U","MEAN_MOTION":13.16588434,"ECCENTRICITY":0.00011904,"INCLINATION":87.9079,"RA_OF_ASC_NODE":222.0949,"ARG_OF_PERICENTER":98.1959,"MEAN_ANOMALY":261.9307,"EPHEMERIS_TYPE":0,"NORAD_CAT_ID":48993,"ELEMENT_SET_NO":999,"REV_AT_EPOCH":24398,"BSTAR":0.000063858385,"MEAN_MOTION_DOT":3.7e-7,"MEAN_MOTION_DDOT":0},{"OBJECT_NAME":"ONEWEB-0276","OBJECT_ID":"2021-060AD","EPOCH":"2026-07-20T18:39:22.385952","CLASSIFICATION_TYPE":"U","MEAN_MOTION":13.16593884,"ECCENTRICITY":0.00019172,"INCLINATION":87.9077,"RA_OF_ASC_NODE":222.1025,"ARG_OF_PERICENTER":94.5834,"MEAN_ANOMALY":265.5516,"EPHEMERIS_TYPE":0,"NORAD_CAT_ID":48994,"ELEMENT_SET_NO":999,"REV_AT_EPOCH":24399,"BSTAR":-0.00016560699,"MEAN_MOTION_DOT":-5e-7,"MEAN_MOTION_DDOT":0},{"OBJECT_NAME":"ONEWEB-0277","OBJECT_ID":"2021-060AE","EPOCH":"2026-07-20T18:57:36.552960","CLASSIFICATION_TYPE":"U","MEAN_MOTION":13.16595261,"ECCENTRICITY":0.00021869,"INCLINATION":87.9071,"RA_OF_ASC_NODE":222.1069,"ARG_OF_PERICENTER":96.6443,"MEAN_ANOMALY":263.4937,"EPHEMERIS_TYPE":0,"NORAD_CAT_ID":48995,"ELEMENT_SET_NO":999,"REV_AT_EPOCH":24398,"BSTAR":-0.000007466005,"MEAN_MOTION_DOT":1e-7,"MEAN_MOTION_DDOT":0},{"OBJECT_NAME":"ONEWEB-0278","OBJECT_ID":"2021-060AF","EPOCH":"2026-07-20T18:43:55.984512","CLASSIFICATION_TYPE":"U","MEAN_MOTION":13.16594387,"ECCENTRICITY":0.0002163,"INCLINATION":87.9077,"RA_OF_ASC_NODE":222.1013,"ARG_OF_PERICENTER":87.636,"MEAN_ANOMALY":272.5019,"EPHEMERIS_TYPE":0,"NORAD_CAT_ID":48996,"ELEMENT_SET_NO":999,"REV_AT_EPOCH":24411,"BSTAR":-0.000041054026,"MEAN_MOTION_DOT":-3e-8,"MEAN_MOTION_DDOT":0},{"OBJECT_NAME":"ONEWEB-0279","OBJECT_ID":"2021-060AG","EPOCH":"2026-07-20T18:55:19.992576","CLASSIFICATION_TYPE":"U","MEAN_MOTION":13.16593777,"ECCENTRICITY":0.00020461,"INCLINATION":87.9077,"RA_OF_ASC_NODE":222.0979,"ARG_OF_PERICENTER":100.0334,"MEAN_ANOMALY":260.1028,"EPHEMERIS_TYPE":0,"NORAD_CAT_ID":48997,"ELEMENT_SET_NO":999,"REV_AT_EPOCH":24404,"BSTAR":-0.000073631351,"MEAN_MOTION_DOT":-1.5e-7,"MEAN_MOTION_DDOT":0},{"OBJECT_NAME":"ONEWEB-0280","OBJECT_ID":"2021-060AH","EPOCH":"2026-07-20T10:09:47.846016","CLASSIFICATION_TYPE":"U","MEAN_MOTION":13.16594816,"ECCENTRICITY":0.00024111,"INCLINATION":87.9076,"RA_OF_ASC_NODE":222.1744,"ARG_OF_PERICENTER":92.4625,"MEAN_ANOMALY":267.6782,"EPHEMERIS_TYPE":0,"NORAD_CAT_ID":48998,"ELEMENT_SET_NO":999,"REV_AT_EPOCH":24393,"BSTAR":0.00022878705,"MEAN_MOTION_DOT":0.000001,"MEAN_MOTION_DDOT":0},{"OBJECT_NAME":"ONEWEB-0281","OBJECT_ID":"2021-060AJ","EPOCH":"2026-07-20T19:24:56.628000","CLASSIFICATION_TYPE":"U","MEAN_MOTION":13.16592504,"ECCENTRICITY":0.0001924,"INCLINATION":87.908,"RA_OF_ASC_NODE":222.0935,"ARG_OF_PERICENTER":92.791,"MEAN_ANOMALY":267.3441,"EPHEMERIS_TYPE":0,"NORAD_CAT_ID":48999,"ELEMENT_SET_NO":999,"REV_AT_EPOCH":24405,"BSTAR":0.00013944478,"MEAN_MOTION_DOT":6.6e-7,"MEAN_MOTION_DDOT":0},{"OBJECT_NAME":"ONEWEB-0282","OBJECT_ID":"2021-060AK","EPOCH":"2026-07-20T07:22:13.685376","CLASSIFICATION_TYPE":"U","MEAN_MOTION":13.16595229,"ECCENTRICITY":0.0002207,"INCLINATION":87.9078,"RA_OF_ASC_NODE":222.2005,"ARG_OF_PERICENTER":94.6457,"MEAN_ANOMALY":265.4926,"EPHEMERIS_TYPE":0,"NORAD_CAT_ID":49000,"ELEMENT_SET_NO":999,"REV_AT_EPOCH":24396,"BSTAR":-0.000060781938,"MEAN_MOTION_DOT":-1e-7,"MEAN_MOTION_DDOT":0},{"OBJECT_NAME":"ONEWEB-0283","OBJECT_ID":"2021-060AL","EPOCH":"2026-07-20T10:45:08.699040","CLASSIFICATION_TYPE":"U","MEAN_MOTION":13.16593651,"ECCENTRICITY":0.0002062,"INCLINATION":87.9077,"RA_OF_ASC_NODE":222.1717,"ARG_OF_PERICENTER":98.4019,"MEAN_ANOMALY":261.7346,"EPHEMERIS_TYPE":0,"NORAD_CAT_ID":49001,"ELEMENT_SET_NO":999,"REV_AT_EPOCH":24399,"BSTAR":-0.000006167539,"MEAN_MOTION_DOT":1e-7,"MEAN_MOTION_DDOT":0},{"OBJECT_NAME":"ONEWEB-0284","OBJECT_ID":"2021-060AM","EPOCH":"2026-07-20T19:43:12.751104","CLASSIFICATION_TYPE":"U","MEAN_MOTION":13.16594468,"ECCENTRICITY":0.00023714,"INCLINATION":87.9082,"RA_OF_ASC_NODE":222.0917,"ARG_OF_PERICENTER":89.2463,"MEAN_ANOMALY":270.894,"EPHEMERIS_TYPE":0,"NORAD_CAT_ID":49002,"ELEMENT_SET_NO":999,"REV_AT_EPOCH":24402,"BSTAR":0.00025629871,"MEAN_MOTION_DOT":0.00000111,"MEAN_MOTION_DDOT":0},{"OBJECT_NAME":"ONEWEB-0285","OBJECT_ID":"2021-075A","EPOCH":"2026-07-20T21:49:47.648064","CLASSIFICATION_TYPE":"U","MEAN_MOTION":13.12446914,"ECCENTRICITY":0.00017012,"INCLINATION":87.8977,"RA_OF_ASC_NODE":343.9589,"ARG_OF_PERICENTER":90.9769,"MEAN_ANOMALY":269.1554,"EPHEMERIS_TYPE":0,"NORAD_CAT_ID":49075,"ELEMENT_SET_NO":999,"REV_AT_EPOCH":23963,"BSTAR":0.00060518876,"MEAN_MOTION_DOT":0.0000023,"MEAN_MOTION_DDOT":0},{"OBJECT_NAME":"ONEWEB-0286","OBJECT_ID":"2021-075B","EPOCH":"2026-07-20T21:23:58.267104","CLASSIFICATION_TYPE":"U","MEAN_MOTION":13.124431,"ECCENTRICITY":0.0001712,"INCLINATION":87.8968,"RA_OF_ASC_NODE":343.9759,"ARG_OF_PERICENTER":92.0722,"MEAN_ANOMALY":268.0602,"EPHEMERIS_TYPE":0,"NORAD_CAT_ID":49076,"ELEMENT_SET_NO":999,"REV_AT_EPOCH":23898,"BSTAR":-0.0010659829,"MEAN_MOTION_DOT":-0.00000371,"MEAN_MOTION_DDOT":0},{"OBJECT_NAME":"ONEWEB-0287","OBJECT_ID":"2021-075C","EPOCH":"2026-07-20T21:10:31.854432","CLASSIFICATION_TYPE":"U","MEAN_MOTION":13.17648365,"ECCENTRICITY":0.00017244,"INCLINATION":87.9153,"RA_OF_ASC_NODE":359.1629,"ARG_OF_PERICENTER":80.556,"MEAN_ANOMALY":279.5767,"EPHEMERIS_TYPE":0,"NORAD_CAT_ID":49077,"ELEMENT_SET_NO":999,"REV_AT_EPOCH":23806,"BSTAR":0.000060211608,"MEAN_MOTION_DOT":3.6e-7,"MEAN_MOTION_DDOT":0},{"OBJECT_NAME":"ONEWEB-0288","OBJECT_ID":"2021-075D","EPOCH":"2026-07-20T20:50:00.900672","CLASSIFICATION_TYPE":"U","MEAN_MOTION":13.12440927,"ECCENTRICITY":0.00018714,"INCLINATION":87.8977,"RA_OF_ASC_NODE":343.9598,"ARG_OF_PERICENTER":89.0933,"MEAN_ANOMALY":271.041,"EPHEMERIS_TYPE":0,"NORAD_CAT_ID":49078,"ELEMENT_SET_NO":999,"REV_AT_EPOCH":23960,"BSTAR":0.000014672218,"MEAN_MOTION_DOT":1.8e-7,"MEAN_MOTION_DDOT":0},{"OBJECT_NAME":"ONEWEB-0289","OBJECT_ID":"2021-075E","EPOCH":"2026-07-20T22:06:24.744672","CLASSIFICATION_TYPE":"U","MEAN_MOTION":13.17649856,"ECCENTRICITY":0.00022885,"INCLINATION":87.9156,"RA_OF_ASC_NODE":359.1738,"ARG_OF_PERICENTER":94.5461,"MEAN_ANOMALY":265.5932,"EPHEMERIS_TYPE":0,"NORAD_CAT_ID":49079,"ELEMENT_SET_NO":999,"REV_AT_EPOCH":23864,"BSTAR":-0.000035628996,"MEAN_MOTION_DOT":-1e-8,"MEAN_MOTION_DDOT":0},{"OBJECT_NAME":"ONEWEB-0290","OBJECT_ID":"2021-075F","EPOCH":"2026-07-20T21:27:32.067360","CLASSIFICATION_TYPE":"U","MEAN_MOTION":13.1764786,"ECCENTRICITY":0.00023633,"INCLINATION":87.9162,"RA_OF_ASC_NODE":359.1521,"ARG_OF_PERICENTER":95.3489,"MEAN_ANOMALY":264.7912,"EPHEMERIS_TYPE":0,"NORAD_CAT_ID":49080,"ELEMENT_SET_NO":999,"REV_AT_EPOCH":23805,"BSTAR":-0.00011548731,"MEAN_MOTION_DOT":-3.2e-7,"MEAN_MOTION_DDOT":0}]}
